PARKINGLOT_NO,NAME,ADDRESS,TEL,LAT,LOG
1,구청앞주차장,서울특별시 강북구 한천로139길,02-944-3025,37.639,127.026
2,수유2동주차장,서울특별시 강북구 한천로160길 40,02-900-7443,37.646,127.022
3,우이동주차장,서울특별시 강북구 삼양로155길 33,02-944-3049,37.657,127.012
4,송천동주차장,서울특별시 강북구 숭인로7나길 23,02-944-3039,37.615,127.025
5,대지시장길주차장,서울특별시 강북구 솔샘로 243-8,02-944-3035,37.620,127.020
6,송중동주차장,서울특별시 강북구 월계로7길 36,02-944-3038,37.612,127.034
7,구세군길주차장,서울특별시 강북구 인수봉로20가길 21,02-944-3025,37.626,127.014
8,번2동주차장,서울특별시 강북구 오현로21길 6,02-944-3025,37.627,127.037
9,색동공원주차장,서울특별시 강북구 삼양로80나길 56,02-985-3492,37.633,127.021
10,인수동주차장,서울특별시 강북구 삼양로92길 34,02-944-3045,37.635,127.019
11,송중동(임시)주차장,서울특별시 강북구 도봉로8길 67,02-944-3025,37.611,127.034
12,교통광장주차장,서울특별시 강북구 삼양로 678,02-944-3027,37.662,127.008
13,시범주차장,서울특별시 강북구 한천로139가길 10,02-944-3029,37.640,127.026
14,으뜸공원주차장,서울특별시 강북구 삼양로54길 133,02-944-3025,37.620,127.028
15,벽산주차장,서울특별시 강북구 삼각산로 140,02-944-3025,37.641,127.020
16,빨래골주차장,서울특별시 강북구 수유로 30,02-944-3025,37.633,127.019
17,아카데미주차장,서울특별시 강북구 419로25길,02-944-3025,37.635,127.019
18,큰마을길주차장,서울특별시 강북구 삼양로54길 125,02-944-3025,37.624,127.025
19,나눔터길주차장,서울특별시 강북구 수유로 47,02-944-3025,37.635,127.019
20,가오천주차장,서울특별시 강북구 한천로150길 46,02-944-3025,37.644,127.025
21,교육청길주차장,서울특별시 강북구 도봉로20가길 3,02-944-3025,37.619,127.030
22,어울림소공원주차장,서울특별시 강북구 오현로 56,02-944-3025,37.619,127.036
23,수유마을시장주차장,서울특별시 강북구 도봉로69길 27,02-944-3053,37.631,127.022
24,번동햇살주차장,서울특별시 강북구 오현로21길 84,02-944-3044,37.625,127.033
25,수유쌈지주차장,서울특별시 강북구 도봉로 265,02-944-3025,37.632,127.024
26,미아동주차장,서울특별시 강북구 도봉로61길 46,02-944-3048,37.629,127.022
27,삼양마을공원주차장,서울특별시 강북구 삼양로47길 15,02-944-3047,37.623,127.018
28,청암주차장,서울특별시 강북구 솔매로22가길 20,02-944-3025,37.625,127.015
29,수유일공원주차장,서울특별시 강북구 삼양로79길 5,02-944-3042,37.631,127.017
30,삼양시장길주차장,서울특별시 강북구 솔매로7가길,02-944-3025,37.626,127.016
31,가오리주차장,서울특별시 강북구 삼양로107길 30,02-944-3046,37.642,127.015
32,냉천길주차장,서울특별시 강북구 삼양로 230-12,02-944-3040,37.624,127.020
33,은혜(무인)주차장,서울특별시 강북구 삼양로67길 16,02-944-3025,37.628,127.017
34,오패산주차장,서울특별시 강북구 도봉로34길 54,02-944-3041,37.622,127.031
35,DDP동측(양쪽),서울특별시 중구 을지로 281 (을지로7가),02-2290-6449,37.566,127.010
36,DDP북측 마장로,서울특별시 중구 신당동 222-3,02-2290-6449,37.568,127.011
37,가마산고가밑,서울특별시 구로구 구로동 414-13,031-405-8808,37.493,126.883
38,가산동 금천교,서울특별시 금천구 가산동 677,031-405-8808,37.466,126.887
39,가양3동,서울특별시 강서구 가양동 1488-12,02-2663-6209,37.561,126.860
40,가양라이품,서울특별시 강서구 강서로 515,02-2290-6449,37.571,126.842
41,개봉역(남단),서울특별시 구로구 개봉동 403-31,031-405-8808,37.493,126.856
42,개봉역(북),서울특별시 구로구 개봉동 353-23,02-850-0916,37.495,126.856
43,개봉역(중앙),서울특별시 구로구 개봉동 403-10,031-405-8808,37.494,126.856
44,개화산역,서울특별시 강서구 방화동 845,02-2662-6415,37.572,126.806
45,개화역,서울특별시 강서구 개화동로8길 19 (개화동),02-2290-6312,37.578,126.798
46,공항동(송정역),서울특별시 강서구 공항동 42-8,,37.560,126.811
47,관철동,서울특별시 종로구 청계천로 83 (관철동),02-738-0909,37.568,126.987
48,구로고가밑,서울특별시 구로구 구로동 127-30,031-405-8808,37.480,126.889
49,구로디지털단지역,서울특별시 구로구 구로동 1123,02-859-6318,37.485,126.902
50,구로디지털단지역(상),서울특별시 관악구 신사로 7 (신림동),031-405-8808,37.485,126.904
51,구파발역,서울특별시 은평구 진관동 66-30,02-2290-6088,37.638,126.919
52,낙원상가,서울특별시 종로구 낙원동 284-5,02-864-8400,37.573,126.988
53,남대문 시장,서울특별시 중구 남창동 51-4,02-2290-6449,37.560,127.976
54,남대문 초입,서울특별시 중구 남창동 소월길 51-4,02-2290-6449,37.560,126.976
55,남대문 화물,서울특별시 중구 남대문로 4가 24-1(남대문로 18),02-2663-6209,37.561,126.977
56,남부여성발전센터,서울특별시 금천구 독산로50길 23 (시흥동),070-7119-2603,37.463,126.906
57,남산공원 소월로,서울특별시 중구 남대문로5가 450,02-2290-6449,37.555,126.977
58,남산공원 소파로,서울특별시 중구 남창동 205-107,02-2290-6449,37.556,126.978
59,남산소파길,서울특별시 중구 예장동 8-189,,37.557,126.986
60,남산케이블카,서울특별시 중구 소파로 83 (회현동1가),02-2663-6209,37.557,126.984
61,남산파출소,서울특별시 중구 회현동1가 147-32,02-2663-6209,37.555,126.982
62,남산한옥마을,서울특별시 중구 필동2가 83-1,02-2275-6122,37.560,126.993
63,당고개아래,서울특별시 노원구 상계3동 65-40,070-7119-2603,37.668,127.077
64,당고개위,서울특별시 노원구 상계3동 111-568,070-7119-2603,37.671,127.081
65,당고개전철밑,서울특별시 노원구 상계3동 140-66,070-7119-2603,37.664,127.075
66,당산고가밑,서울특별시 영등포구 당산동5가 9-15,032-872-7078,37.533,126.901
67,당산노외,서울특별시 영등포구 당산동3가 2-1,032-872-7078,37.526,126.899
68,대림노외,서울특별시 구로구 구로동 125-32,032-872-7078,37.493,126.894
69,대림역,서울특별시 영등포구 대림동 808-24,032-872-7078,37.493,126.895
70,대림역2,서울특별시 구로구 구로동 73-9,,37.495,126.894
71,도봉로 15길,서울특별시 강북구 미아동 458-7,070-7119-2603,37.617,127.028
72,도봉산,서울특별시 도봉구 도봉동 282-26,070-7119-2603,37.688,127.041
73,도봉산역,서울특별시 도봉구 도봉로 955 (도봉동),02-2290-6047,37.690,127.045
74,독립문고가밑,서울특별시 서대문구 증가로2길 1,02-2663-6209,37.572,126.960
75,독산동 금천교,서울특별시 금천구 독산동 1081-4,031-405-8808,37.467,126.889
76,돈화문로,서울특별시 중구 을지로3가 296-24,02-2272-8821,37.565,126.993
77,동국제강,서울특별시 중구 남대문로10길 13 (삼각동),02-864-8400,37.567,126.983
78,동대문,서울특별시 중구 마장로 22 (신당동),02-2254-4901,37.567,127.012
79,동부청과,서울특별시 동대문구 용두동 8-1,02-2272-8821,37.577,127.045
80,동순라길(종묘),서울특별시 종로구 인의동 112-10,02-2290-6449,37.572,126.997
81,동작대교,서울특별시 동작구 동작대로 335 (동작동),02-2663-6209,37.506,126.980
82,동작대교(위),서울특별시 동작구 동작대로 335 (동작동),031-903-3345,37.506,126.980
83,동호대교(남),서울특별시 강남구 압구정동 435,02-445-0501,37.527,127.028
84,마른내길,서울특별시 중구 마른내로 59 (인현동1가),02-2272-8821,37.564,126.994
85,마른내로,서울특별시 중구 오장동,02-2273-0006,37.564,127.000
86,마포유수지,서울특별시 마포구 마포대로1길 9 (마포동),02-711-8851,37.539,126.943
87,망원동,서울특별시 마포구 월드컵로 131 (망원동),02-300-5053,37.560,126.906
88,명일동,서울특별시 강동구 명일2동 47-9,02-445-0501,37.554,127.156
89,목동노외,서울특별시 양천구 목동 905-32,02-2664-1386,37.533,126.877
90,목동체비지,서울특별시 양천구 목동 908-26,02-2663-6209,37.537,126.881
91,문래1동,서울특별시 영등포구 문래동3가 54-12,032-872-7078,37.513,126.897
92,미근동,서울특별시 서대문구 미근동 267-3,02-360-8527,37.562,126.968
93,방화로,서울특별시 강서구 방화동 796,02-2663-6209,37.570,126.816
94,방화역(동),서울특별시 강서구 방화동 830-4,02-2663-6209,37.577,126.813
95,방화역(서),서울특별시 강서구 방화동 829-1,02-2663-6209,37.578,126.812
96,방화우체국,서울특별시 강서구 방화동 365-5,,37.580,126.815
97,배오개길,서울특별시 중구 창경궁로 33-1 (예관동),02-2272-8821,37.565,126.998
98,보라매상업,서울특별시 동작구 신대방동 431-3,031-903-3345,37.490,126.923
99,복정역,서울특별시 송파구 장지동 561-9,02-3443-9240,37.471,127.127
100,봉천복개3,서울특별시 관악구 신림동 1467-3,031-903-3345,37.488,126.931
101,봉화산역(남),서울특별시 중랑구 신내동647,070-7119-2603,37.616,127.092
102,사당노외,서울특별시 서초구 과천대로 950-18 (방배동),02-582-6417,37.475,126.984
103,상봉복개,서울특별시 중랑구 상봉동 399-4,02-2272-8821,37.594,127.088
104,서린노외,서울특별시 종로구 종로 38 (서린동),02-720-9862,37.570,126.981
105,석계역,서울특별시 노원구 월계동 50-9,070-7119-2603,37.615,127.062
106,성내역,서울특별시 송파구 신천동 11-1,02-445-0501,37.517,127.105
107,성북초교,서울특별시 성북구 성북2동 125,02-914-2008,37.591,127.009
108,세종로,서울특별시 종로구 세종대로 지하 189 (세종로),02-2290-6566,37.573,126.976
109,소파로 TBS앞,서울특별시 중구 예장동 4-7,02-2290-6449,37.560,126.988
110,소파로케이블카앞,서울특별시 중구 회현동1가 산1-15,02-2290-6449,37.556,126.984
111,수락산역,서울특별시 노원구 상계동 1268,02-2290-6407,37.679,127.056
112,수서역,서울특별시 강남구 수서동 735,02-2226-6404,37.488,127.100
113,신대방역,서울특별시 동작구 대림로 2 (신대방동),02-858-6417,37.488,126.913
114,신문로,서울특별시 종로구 새문안로3길 8 (신문로1가),02-720-0964,37.571,126.973
115,신방화역환승주차장,서울특별시 강서구 마곡서1로 111-12,,37.567,126.818
116,신설동 풍물시장,서울특별시 동대문구 난계로28길 16 (신설동),02-2232-6096,37.573,127.024
117,신천유수지,서울특별시 송파구 오금로 1 (신천동),02-414-6417,37.522,127.103
118,압구정고가1,서울특별시 강남구 압구정로 지하 172 (신사동),02-445-0501,37.524,127.028
119,압구정고가2,서울특별시 강남구 압구정로 지하 172 (신사동),02-445-0501,37.524,127.028
120,양평고가밑,서울특별시 양천구 목동 900-8,02-2663-6209,37.539,126.884
121,양평동(동),서울특별시 영등포구 양평동5가 44-1(양평교하부),032-872-7078,37.540,126.890
122,여의서로,서울특별시 영등포구 여의도동 8-1,031-903-3345,37.529,126.930
123,영남,서울특별시 영등포구 영등포로34길 9 (영등포동4가),070-7119-2603,37.519,126.903
124,영동6교밑,서울특별시 강남구 대치동 512-1,02-445-0501,37.495,127.070
125,영동대교 북단,서울특별시 성동구 성수동 231-24(성수동2가),02-2204-7970,37.537,127.061
126,영등포구청역,서울특별시 영등포구 당산동3가 370-3,02-2290-6089,37.525,126.895
127,영등포로터리,서울특별시 영등포구 영등포동1가 111-1,032-872-7078,37.518,126.911
128,영보빌딩,서울특별시 강서구 가양동 1480-10,02-2663-6209,37.563,126.853
129,옥수역,서울특별시 성동구 옥수동 401-1,02-445-0501,37.542,127.017
130,온수역(남),서울특별시 구로구 온수동51-26,031-405-8808,37.492,126.824
131,온수역(북),서울특별시 구로구 온수동20-1,,37.493,126.821
132,올림픽대교(북),서울특별시 광진구 구의동 올림픽대교(하부),02-2049-4500,37.534,127.104
133,용산등기소,서울특별시 용산구 문배동 12-1,02-2663-6209,37.537,126.969
134,용산주차빌딩,서울특별시 용산구 새창로49길 42 (한강로2가),02-2290-6014,37.539,127.002
135,웃우물,서울특별시 양천구 중앙로 310 (신정동),02-2290-6311,37.524,126.851
136,원효대교 남단,서울특별시 영등포구 여의도동 5,031-903-3345,37.520,126.933
137,월계역,서울특별시 노원구 월계동 589-3,02-2289-6723,37.633,127.059
138,을지로,서울특별시 중구 을지로3가 282-8,02-2272-8821,37.566,126.994
139,일원동,서울특별시 강남구 양재대로55길 6 (일원동),,37.491,127.088
140,일원역,서울특별시 강남구 일원본동 716-2,02-445-0501,37.485,127.084
141,일원터널,서울특별시 강남구 광평로 61 (일원동),,37.483,127.079
142,잠실역,서울특별시 송파구 올림픽로 300 (신천동),02-2290-6402,37.513,127.104
143,장안2동,서울특별시 동대문구 답십리로65길 124-5 (장안동),02-2290-6417,37.578,127.071
144,장충단로(한남광장),서울특별시 용산구 한남동 산9-19,02-2290-6449,37.548,127.003
145,적선동 노외,서울특별시 종로구 적선동 140,02-2264-4895,37.574,126.974
146,제물포로,서울특별시 강서구 화곡동 947-3,02-2663-6209,37.528,126.845
147,제방도로,서울특별시 구로구 구로동 69-2,032-872-7078,37.498,126.893
148,종묘,서울특별시 종로구 종로 155,02-741-5238,37.574,126.994
149,종암1동,서울특별시 성북구 종암동 133-8,02-914-2008,37.599,127.031
150,중앙일보사,서울특별시 중구 서소문로 88 (순화동),02-2290-6449,37.561,127.971
151,증가로,서울특별시 서대문구 증가로 261 (북가좌동),02-360-8527,37.584,126.911
152,진흥로,서울특별시 은평구 역촌동41-8,02-2663-6209,37.602,126.921
153,창동역,서울특별시 도봉구 마들로11길 74 (창동),02-2290-6387,37.655,127.051
154,창동역(서),서울특별시 도봉구 노해로65길 17-6 (창동),070-7119-2603,37.652,127.046
155,천왕역,서울특별시 구로구 오류동 174-10,02-2060-5026,37.487,126.839
156,천호역,서울특별시 강동구 천호대로 1015,02-2290-6201,37.539,127.125
157,청계1,서울특별시 종로구 관철동 13-14,02-864-8400,37.569,126.988
158,청계2,서울특별시 종로구 관수동 91-4,02-864-8400,37.569,126.992
159,청계3,서울특별시 종로구 예지동 140-1,02-864-8400,37.569,126.997
160,청계5,서울특별시 종로구 종로5가 458-2,02-864-8400,37.570,127.006
161,청계5가,서울특별시 중구 을지로6가 17-442,02-2265-3531,37.570,127.008
162,청계6,서울특별시 종로구 종로6가 289-49,02-864-8400,37.570,127.008
163,청계7,서울특별시 종로구 창신동 436-87,02-864-8400,37.570,127.016
164,청계8,서울특별시 동대문구 신설동 109-2,02-2272-8821,37.571,127.025
165,청계8가,서울특별시 중구 청계천 8가,02-2280-8369,37.571,127.018
166,탑골공원,서울특별시 종로구 대학로5길 97,02-2290-6449,37.571,126.988
167,학여울역,서울특별시 강남구 대치동 514-1,02-569-7741,37.495,127.070
168,한강대교(남),서울특별시 동작구 본동 5-5,031-903-3345,37.513,126.957
169,한강진역,서울특별시 용산구 한남동 산10-84,02-795-6406,37.539,127.002
170,해군본부앞,서울특별시 영등포구 신길동 812,031-903-3345,37.504,126.921
171,해방촌노외,서울특별시 용산구 소월로20길 56 (용산동2가),02-2663-6209,37.544,126.984
172,화랑대역,서울특별시 중랑구 묵동 28,02-2290-6410,37.620,127.087
173,훈련원 화물대기,서울특별시 중구 을지로 227 (을지로5가),02-2290-6382,37.567,127.004
174,해공공영주차장,서울특별시 강동구 구천면로 29길 11,02-470-0988,37.541,127.129
175,천호유수지공영주차장,서울특별시 강동구 선사로 70,02-473-3124,37.545,127.122
176,천호1동공영주차장,서울특별시 강동구 구천면로 42길 60,02-487-0073,37.545,127.136
177,천호2동공영주차장,서울특별시 강동구 천호동 457-7,070-7547-3512,37.540,127.123
178,천호3동공영주차장,서울특별시 강동구 진황도로 29길 34,02-472-0066,37.539,127.133
179,온조대왕옆공영주차장,서울특별시 강동구 동남로 918,02-2045-7800,37.558,127.157
180,안말공영주차장,서울특별시 강동구 풍성로 45길 11,02-482-3194,37.531,127.130
181,암사1동공영주차장,서울특별시 강동구 고덕로 28길 36,02-428-2431,37.553,127.138
182,강일동공영주차장,서울특별시 강동구 아리수로 91길 54,02-427-6124,37.566,127.172
183,명일동공영주차장,서울특별시 강동구 구천면로 395,02-442-6124,37.551,127.143
184,고분다리전통시장공영주차장,서울특별시 강동구 구천면로 36길 7,070-7547-3512,37.543,127.132
185,천호2동제2노상주차장,서울특별시 강동구 천호대로 151길,02-478-6147,37.540,127.123
186,주양쇼핑옆노상주차장,서울특별시 강동구 고덕로 62길,02-478-6147,37.553,127.153
187,강일동노상주차장,서울특별시 강동구 아리수로 93길 9-14,02-478-6147,37.565,127.173
188,주양쇼핑앞노상주차장,서울특별시 강동구 동남로 71길,02-478-6147,37.552,127.155
189,천호3동제2공영주차장,서울특별시 강동구 성안로31마길 1,070-7547-3512,37.541,127.134
190,성수역3번출구 앞,서울특별시 성동구 성수이로 (성수2가 315),02-2204-7970,37.543,127.057
191,KT성수분국 앞,서울특별시 성동구 아차산로9길 48,02-2204-7970,37.545,127.061
192,마장축산물시장 남문,서울특별시 성동구 마장로39가길 32 (마장동),02-2204-7970,37.568,127.041
193,마장축산물시장 북문,서울특별시 성동구  (마장동 804)766,02-2204-7970,37.571,127.040
194,마장현대아파트 앞,서울특별시 성동구 마장로35길 76(마장동),02-2204-7970,37.570,127.043
195,장한평자동차시장 가동,서울특별시 성동구 자동차시장1길 (용답동),02-2204-7970,37.561,127.059
196,한전변전소 뒤,서울특별시 성동구 마장로35길 34(마장동),02-2204-7970,37.568,127.038
197,마장주민센터앞,서울특별시 성동구 마장로42길 6(마장동),02-2204-7970,37.566,127.046
198,마장동대형버스(버스),서울특별시 성동구 마장로33길 79 (마장동),02-2204-7970,37.566,127.045
199,(지정)강변,서울특별시 성동구 둘레길 47-5(성수동1가),02-2204-7970,37.537,127.049
200,금호초등학교(건물),서울특별시 성동구 무수막길 69(금호동2가),02-2204-7970,37.552,127.019
201,성수2가1동(건물),서울특별시 성동구 성덕정길 115(성수동2가),02-2204-7970,37.537,127.056
202,송정동 (건물),서울특별시 성동구 동일로 199(송정동),02-2204-7970,37.550,127.068
203,하왕십리(건물),서울특별시 성동구 무학봉길 48(행당동 347-3)1,02-2204-7970,37.561,127.028
204,성수2가3동(건물),서울특별시 성동구 광나루로4가길 23(성수동2가),02-2204-7970,37.549,127.055
205,응봉동(건물),서울특별시 성동구 독서당로63길 40(행당동),02-2204-7970,37.553,127.031
206,용답동(건물),서울특별시 성동구 용답29길 22(용답동),02-2204-7970,37.564,127.054
207,살곶이 공영주차장,서울특별시 성동구 사근동 104서울특별시 성동구 사근동 104,02-2204-7970,37.554,127.047
208,응봉동(평면),서울특별시 성동구 독서당로63길 40(행당동),02-2204-7970,37.551,127.035
209,도선동,서울특별시 성동구 무학로8길 8(홍익동),02-2204-7970,37.566,127.032
210,홍익동(건물),서울특별시 성동구 무학로10길 28(홍익동),02-2204-7970,37.566,127.034
211,강변(건물),서울특별시 성동구 둘레길 47-5(성수동1가),02-2204-7970,37.537,127.049
212,마장동(건물),서울특별시 성동구 청계천로10나길 38(마장동),02-2204-7970,37.570,127.035
213,성수1가2동(평면),서울특별시 성동구 상원10길 21(성수동1가),02-2204-7965,37.550,127.050
214,마장동축산물시장(평면),서울특별시 성동구 마장동 525,02-2204-7970,37.572,127.040
215,용답제2공영주차장,서울특별시 성동구 천호대로78길 9(용답동),02-2204-7970,37.563,127.056
216,마장동축산물 서문,서울특별시 성동구 고산자로26길 6(마장동),02-2204-7970,37.571,127.039
217,성수1가1동(건물),서울특별시 성동구 성덕정1길 6(성수동1가),02-2204-7970,37.540,127.046
218,구청앞주차장,서울특별시 강북구 한천로139길,02-944-3025,37.639,127.026
219,수유2동주차장,서울특별시 강북구 한천로160길 40,02-900-7443,37.646,127.022
220,우이동주차장,서울특별시 강북구 삼양로155길 33,02-944-3049,37.657,127.012
221,송천동주차장,서울특별시 강북구 숭인로7나길 23,02-944-3039,37.615,127.025
222,대지시장길주차장,서울특별시 강북구 솔샘로 243-8,02-944-3035,37.620,127.020
223,송중동주차장,서울특별시 강북구 월계로7길 36,02-944-3038,37.612,127.034
224,구세군길주차장,서울특별시 강북구 인수봉로20가길 21,02-944-3025,37.626,127.014
225,번2동주차장,서울특별시 강북구 오현로21길 6,02-944-3025,37.627,127.037
226,색동공원주차장,서울특별시 강북구 삼양로80나길 56,02-985-3492,37.633,127.021
227,인수동주차장,서울특별시 강북구 삼양로92길 34,02-944-3045,37.635,127.019
228,송중동(임시)주차장,서울특별시 강북구 도봉로8길 67,02-944-3025,37.611,127.034
229,교통광장주차장,서울특별시 강북구 삼양로 678,02-944-3027,37.662,127.008
230,시범주차장,서울특별시 강북구 한천로139가길 10,02-944-3029,37.640,127.026
231,으뜸공원주차장,서울특별시 강북구 삼양로54길 133,02-944-3025,37.620,127.028
232,벽산주차장,서울특별시 강북구 삼각산로 140,02-944-3025,37.641,127.020
233,빨래골주차장,서울특별시 강북구 수유로 30,02-944-3025,37.633,127.019
234,아카데미주차장,서울특별시 강북구 419로25길,02-944-3025,37.635,127.019
235,큰마을길주차장,서울특별시 강북구 삼양로54길 125,02-944-3025,37.624,127.025
236,나눔터길주차장,서울특별시 강북구 수유로 47,02-944-3025,37.635,127.019
237,가오천주차장,서울특별시 강북구 한천로150길 46,02-944-3025,37.644,127.025
238,교육청길주차장,서울특별시 강북구 도봉로20가길 3,02-944-3025,37.619,127.030
239,어울림소공원주차장,서울특별시 강북구 오현로 56,02-944-3025,37.619,127.036
240,수유마을시장주차장,서울특별시 강북구 도봉로69길 27,02-944-3053,37.631,127.022
241,번동햇살주차장,서울특별시 강북구 오현로21길 84,02-944-3044,37.625,127.033
242,수유쌈지주차장,서울특별시 강북구 도봉로 265,02-944-3025,37.632,127.024
243,미아동주차장,서울특별시 강북구 도봉로61길 46,02-944-3048,37.629,127.022
244,삼양마을공원주차장,서울특별시 강북구 삼양로47길 15,02-944-3047,37.623,127.018
245,청암주차장,서울특별시 강북구 솔매로22가길 20,02-944-3025,37.625,127.015
246,수유일공원주차장,서울특별시 강북구 삼양로79길 5,02-944-3042,37.631,127.017
247,삼양시장길주차장,서울특별시 강북구 솔매로7가길,02-944-3025,37.626,127.016
248,가오리주차장,서울특별시 강북구 삼양로107길 30,02-944-3046,37.642,127.015
249,냉천길주차장,서울특별시 강북구 삼양로 230-12,02-944-3040,37.624,127.020
250,은혜(무인)주차장,서울특별시 강북구 삼양로67길 16,02-944-3025,37.628,127.017
251,오패산주차장,서울특별시 강북구 도봉로34길 54,02-944-3041,37.622,127.031
252,낙성대제1공영주차장,서울특별시 관악구 봉천로 62길 일대,02-2081-2678,37.478,126.959
253,낙성대제2공영주차장,서울특별시 관악구 낙성대로 3길 일대,02-2081-2678,37.474,126.960
254,난곡동제1공영주차장,서울특별시 관악구 난곡로34길 71,02-2081-2679,37.472,126.923
255,난우중공영주차장,서울특별시 관악구 난곡로 16길 32,02-2081-2679,37.467,126.923
256,남부초공영주차장,서울특별시 관악구 남부순환로 163길 14,02-2081-2679,37.485,126.922
257,당곡중공영주차장,서울특별시 관악구 봉천로 13길 101,02-2081-2679,37.492,126.933
258,미성동제4공영주차장,서울특별시 관악구 난우10가길 2,02-2081-2679,37.476,126.920
259,보라매제1공영주차장,서울특별시 관악구 봉천로 21길 38,02-2081-2679,37.489,126.935
260,삼성동제1공영주차장,서울특별시 관악구 원신길 78~224구간,02-2081-2678,37.469,126.931
261,서원동제1공영주차장,서울특별시 관악구 관천로 32~44구간,02-2081-2678,37.482,126.929
262,신림동제1공영주차장,서울특별시 관악구 관천로 98,02-2081-2679,37.487,126.923
263,신림동제2공영주차장,서울특별시 관악구 관천로 66 일대,02-2081-2678,37.485,126.926
264,신사동제1공영주차장,서울특별시 관악구 남부순환로 153길 51,02-2081-2679,37.484,126.915
265,신사시장공영주차장,서울특별시 관악구 관천로19길 87-1,02-2081-2679,37.487,126.918
266,신원시장공영주차장,서울특별시 관악구 관천로 29,02-2081-2679,37.482,126.928
267,원신공영주차장,서울특별시 관악구 양지길 63,02-2081-2679,37.470,126.929
268,조원동제1공영주차장,서울특별시 관악구 조원중앙로2길 19,02-2081-2679,37.481,126.906
269,조원동제2공영주차장,서울특별시 관악구 조원로 4~34구간,02-2081-2678,37.484,126.903
270,행운동제1공영주차장,서울특별시 관악구 행운4길 21,02-2081-2678,37.480,126.960
271,흑석빗물펌프장,서울특별시 동작구 서달로15길 6,02-826-5627,37.508,126.963
272,대방생태,서울특별시 동작구 대방로1길 9,02-826-3135,37.500,126.927
273,구릉,서울특별시 동작구 여의대방로24차길 34,02-816-1494,37.499,126.927
274,서광,서울특별시 동작구 신대방11길 32,02-833-0919,37.489,126.908
275,한누리,서울특별시 동작구 남부순환로267길 6-1,02-597-9219,37.477,126.977
276,도화,서울특별시 동작구 성대로17길지하 52,02-811-0983,37.500,126.935
277,동작주차공원,서울특별시 동작구 현충로 213,02-537-2849,37.504,126.976
278,보라매공원동문,서울특별시 동작구 보라매로5길 28,070-7204-3271,37.494,126.924
279,동작구청부설,서울특별시 동작구 장승배기로 161,02-820-1440,37.512,126.940
280,빙수골장미,서울특별시 동작구 국사봉16길 40,02-812-0986,37.494,126.933
281,보라매병원앞,서울특별시 동작구 보라매로5길 44,02-832-2445,37.492,126.923
282,동작갯마을,서울특별시 동작구 동작대로 213,02-3481-6830,37.496,126.983
283,반포복개천,서울특별시 서초구 반포4동  57주변,02-2155-7287,37.504,127.010
284,방배복개도로 제1지역,서울특별시 서초구 방배동 493-3,02-2155-7289,37.478,126.983
285,방배복개도로 제2지역,서울특별시 서초구 방배동 493-5,02-2155-7289,37.483,126.983
286,방배역,서울특별시 서초구 방배동 910-16,02-2155-7289,37.482,126.997
287,방배중앙로,서울특별시 서초구 방배본동 760-3일대,02-2155-7289,37.495,126.986
288,교대역동측,서울특별시 서초구 서초대로 314,02-2155-7274,37.494,127.016
289,시민의숲동측,서울특별시 서초구 양재2동 237,02-2155-7290,37.473,127.038
290,청계산근린광장,서울특별시 서초구 원지동 361-6,02-2155-7290,37.446,127.056
291,반포서래,서울특별시 서초구 사평대로22길31,02-2155-7287,37.498,126.998
292,청계산청룡,서울특별시 서초구 신원동 224-3일대,02-2155-7290,37.447,127.060
293,양재시민의숲,서울특별시 서초구 양재2동237-2,02-2155-7290,37.470,127.038
294,서초역 주차빌딩,서울특별시 서초구 반포대로28길7,02-2155-7274,37.491,127.009
295,양재주차빌딩,서울특별시 서초구 양재천로125-10,02-2155-7290,37.478,127.041
296,구룡주차빌딩,서울특별시 서초구 동산로19길37,02-2155-7290,37.474,127.046
297,언구비 주차빌딩,서울특별시 서초구 강남대로83길55,02-2155-7287,37.505,127.021
298,미도아파트 앞 주차빌딩,서울특별시 서초구 서초중앙로31길14-5,02-2155-7287,37.500,127.010
299,이수 주차빌딩,서울특별시 서초구 방배중앙로193,02-2155-7289,37.496,126.985
300,중앙로 공영 주차빌딩,서울특별시 서초구 방배중앙로25,02-2155-7289,37.482,126.992
301,동산마을 공영주차장,서울특별시 서초구 강남대로8길77,02-2155-7290,37.470,127.044
302,구룡공원 노외공영주차장,서울특별시 서초구 논현로5길29,02-2155-7290,37.472,127.049
303,반포동 방음언덕형 공영주차장,서울특별시 서초구 반포1동 730일대,02-2155-7287,37.504,127.018
304,서래마을구립 공영주차장,서울특별시 서초구 서래로4길5,02-2155-7287,37.497,126.998
305,언남문화체육 센터공영주차장,서울특별시 서초구 동산로55,02-2155-7290,37.473,127.044
306,무궁화 노외공영주차장,서울특별시 서초구 서초대로54길45,02-2155-7274,37.492,127.017
307,잠원동 방음언덕형 공영주차장,서울특별시 서초구 잠원동89-5,02-2155-7287,37.516,127.016
308,서초구립 반포2동,서울특별시 서초구 신반포로15길6,02-2155-7287,37.405,126.996
309,반포4동 주민센터 공영주차장,서울특별시 서초구 사평대로28길 70,02-2155-7287,37.497,127.000
310,방배열린 문화센터,서울특별시 서초구 방배로173,02-2155-7289,37.489,126.992
311,양재2동주민센터 공영주차장,서울특별시 서초구 강남대로12길 44,02-2155-7290,37.471,127.041
312,방배1동 공영주차장,서울특별시 서초구 방배로23길 31-6,02-2155-7289,37.486,126.992
313,양재근린공원 공영주차장,서울특별시 서초구 양재동 311,02-2155-7290,37.472,127.042
314,신길7동공영주차장,서울특별시 영등포구 여의대방로45길 18,02-2650-1400,37.508,126.922
315,신길1동공영주차장,서울특별시 영등포구 도신로62길 22,02-2650-1400,37.510,126.919
316,영등포동제3공영주차장,서울특별시 영등포구 영중로 15 (영등포동4가),02-2068-3596,37.517,126.903
317,대림운동장공영주차장,서울특별시 영등포구 도신로4길 32,02-831-3312,37.500,126.895
318,당산근린공원공영주차장,서울특별시 영등포구 당산로27길 12 (당산동3가),02-2633-0298,37.525,126.895
319,영등포여고공영주차장,서울특별시 영등포구 영등포로62길 13 (신길동),02-831-6723,37.515,126.915
320,신길4동1동1마을공원공영주차장,서울특별시 영등포구 신길로40길 5 (신길동),02-845-2911,37.507,126.912
321,대림어린이공원공영주차장,서울특별시 영등포구 대림로 106 (대림동),02-845-5505,37.491,126.903
322,도림초교공영주차장,서울특별시 영등포구 가마산로65길 22 (신길동),02-845-8453,37.508,126.907
323,영등포구청환승공영주차장,서울특별시 영등포구 양산로 111 (당산동3가),02-2068-8916,37.525,126.895
324,신길역사(1호선)공영주차장,서울특별시 영등포구 영등포로 327(신길동),02-831-2399,37.516,126.917
325,신길환승(5호선)공영주차장,서울특별시 영등포구 경인로114가길 9 (영등포동1가),02-2069-2440,37.518,126.915
326,대림3동공영주차장,서울특별시 영등포구 도림로47가길 9(대림동),02-841-6957,37.498,126.900
327,대림2동공영주차장,서울특별시 영등포구 디지털로37나길 21 (대림동),02-831-5796,37.492,126.900
328,대림1동공영주차장,서울특별시 영등포구 대림로22길 2 (대림동),02-831-4287,37.493,126.902
329,신길6동공영주차장,서울특별시 영등포구 신길로40길 5,02-831-9463,37.503,126.911
330,신길4동공영주차장,서울특별시 영등포구 가마산로 502 (신길동),02-843-2798,37.505,126.912
331,영등포본동제2공영주차장,서울특별시 영등포구 신길로60길 34 (신길동),02-831-4938,37.513,126.914
332,양평2동공영주차장,서울특별시 영등포구 선유로 49길27(양평동4가),02-2069-1994,37.536,126.885
333,문래동공영주차장,서울특별시 영등포구 문래동5가3-2,02-2633-0206,37.516,126.887
334,도림동공영주차장,서울특별시 영등포구 도신로15길 36 (도림동),02-845-5524,37.508,126.897
335,당산2동공영주차장,서울특별시 영등포구 버드나루로 111(당산동),02-2671-2049,37.528,126.908
336,당산1동공영주차장,서울특별시 영등포구 양산로 147 (당산동3가),02-2635-2388,37.524,126.899
337,영등포동제2공영주차장,서울특별시 영등포구 버드나루로7길 12-15(영등포동),02-831-4938,37.524,126.909
338,영등포동제1공영주차장,서울특별시 영등포구 영등포로 53길 28(영등포동),02-2671-1787,37.521,126.910
339,영등포본동제1공영주차장,서울특별시 영등포구 영신로10길 15 (영등포동),02-845-2913,37.514,126.909
340,경부제3녹지지하공영주차장,서울특별시 영등포구 영등포로 405,02-2677-1401,,
341,별관청사공영주차장,서울특별시 영등포구 선유동1로 80,02-3667-0333,37.528,126.894
342,신길5동공영주차장,서울특별시 영등포구 신길5동 400-1,02-832-1410,37.502,126.905
343,문래근린공원공영주차장,서울특별시 영등포구 문래동3가 60-2,02-2676-1520,37.515,126.885
344,개운산,서울특별시 성북구 북악산로 949-60,02-6925-0023,37.597,127.024
345,경동고,서울특별시 성북구 보문로29길 49,02-6925-0023,37.586,127.013
346,구청사,서울특별시 성북구 보문로 168 성북구청,02-6925-0023,37.589,127.015
347,길음환승,서울특별시 성북구 동소문로 260,02-6925-0023,37.604,127.024
348,동방고개,서울특별시 성북구 장위로13길 9,02-6925-0023,37.615,127.039
349,마을공원,서울특별시 성북구 돌곶이로32길 43 옆,02-6925-0023,37.617,127.054
350,벤처빌딩,서울특별시 성북구 화랑로 212,02-6925-0023,37.608,127.042
351,장위시장,서울특별시 성북구 장월로8길 36,02-6925-0023,37.611,127.048
352,정릉시장,서울특별시 성북구 정릉로23길 56,02-6925-0023,37.608,127.007
353,화곡본-2,서울특별시 강서구 초록마을로5길 43,02-2607-1570,37.544,126.849
354,화곡2-1,서울특별시 강서구 강서로 18아길 26-15,02-2607-1419,37.536,126.850
355,화곡3-1,서울특별시 강서구 화곡로 15길 40,02-2603-1573,37.542,126.833
356,화곡4-1,서울특별시 강서구 곰달래로 54가길 20,02-2645-1574,37.542,126.826
357,화곡5-1,서울특별시 강서구 강서로 36길 21,02-2604-8688,37.544,126.838
358,화곡5-2,서울특별시 강서구 강서로 34길 41-21,02-2604-8688,37.544,126.839
359,화곡5-3,서울특별시 강서구 화곡로 27가길 38,02-2604-8688,37.543,126.834
360,화곡7-1,서울특별시 강서구 월정로 32길 68,02-2699-8671,37.545,126.835
361,등촌2-1,서울특별시 강서구 등촌로 55길 33-16,02-2645-1578,37.550,126.859
362,화곡6-1,서울특별시 강서구 우장산로 114,02-2607-9113,37.553,126.846
363,볏골공원,서울특별시 강서구 까치산로4길 22,02-2065-1575,37.542,126.842
364,곰달래문화복지센터,서울특별시 강서구 강서로5길 50,02-2690-2818,37.529,126.847
365,가로공원로지하,서울특별시 강서구 가로공원로 189,02-2699-0802,37.538,126.837
366,화곡본-1,서울특별시 강서구 초록마을로 26길 48,02-2065-8751,37.540,126.848
367,화곡1-1,서울특별시 강서구 곰달래로 15길 28,02-2699-3993,37.542,126.835
368,화곡8-1,서울특별시 강서구 초록마을로 22길 57-11,02-2608-1572,37.538,126.847
369,화곡8-2,서울특별시 강서구 초록마을로 126,02-2607-1571,37.538,126.848
370,화곡1동 배다리서길,서울특별시 강서구 강서로5나길 6,02-2607-9113,37.529,126.847
371,화곡1동 달구지길,서울특별시 강서구 월정로28길 14,02-2607-9113,37.533,126.837
372,"화곡2,4,8동 배다리동길",서울특별시 강서구 국회대로 7길 196,02-2607-9113,37.529,126.850
373,화곡6동 방죽길,서울특별시 강서구 공항대로46길 35,02-2607-9113,37.555,126.853
374,화곡6동 신학대길,서울특별시 강서구 화곡로 302,02-2607-9113,37.551,126.850
375,등촌3동 구암길,서울특별시 강서구 공항대로39길 74,02-2607-9113,37.560,126.846
376,등촌3동 꿈나무길,서울특별시 강서구 공항대로 351-21,02-2607-9113,37.560,126.846
377,가양3동 황금내공원길,서울특별시 강서구 허준로 175,02-2607-9113,37.563,126.862
378,수색동 공영주차장,서울특별시 은평구 수색로224,02-350-5189,37.580,126.899
379,응암3동 공영주차장,서울특별시 은평구 불광천길436,02-350-5188,37.594,126.915
380,갈현1동 공영주차장,서울특별시 은평구 갈현로41가길16,02-357-5947,37.626,126.915
381,새장골 공영주차장,서울특별시 은평구 통일로92다길16-23,02-355-5947,37.624,126.924
382,연광초교지하공영주차장,서울특별시 은평구 연서로35길37,02-385-2193,37.624,126.924
383,서신초교지하공영주차장,서울특별시 은평구 은평터널로150,02-375-3822,37.592,126.907
384,매바위공영주차장,서울특별시 은평구 가좌로5길16-1,02-376-6358,37.587,126.921
385,구산동마을공원지하공영주차장,서울특별시 은평구 서오릉로17길,080-330-3600,37.615,126.908
386,은평평화공원지하공영주차장,서울특별시 은평구 서오릉로47,02-350-5183,37.606,126.923
387,연신중학교지하공영주차장,서울특별시 은평구 연서로33길16-32,070-3721-3619,37.623,126.925
388,봉산도시자연공원지하공영주차장,서울특별시 은평구 가좌로11가길38-11,02-350-5171,37.612,126.910
389,봉산도시자연공원내,서울특별시 은평구 증산로5길35-27,02-350-5171,37.612,126.910
390,언주로147길,서울특별시 강남구 언주로  147길 18,1544-3113,37.520,127.033
391,도산대로45길,서울특별시 강남구 도산대로 323,1544-3113,37.523,127.037
392,언주로171길,서울특별시 강남구 언주로 857,1544-3113,37.527,127.033
393,선릉로146길,서울특별시 강남구 선릉로 742,1544-3113,37.521,127.044
394,선릉로132길,서울특별시 강남구 학동로 405,1544-3113,37.518,127.042
395,테헤란로64길,서울특별시 강남구 테헤란로 412,1544-3113,37.505,127.051
396,영동대로85길,서울특별시 강남구 테헤란로 504,1544-3113,37.507,127.057
397,테헤란로26길,서울특별시 강남구 테헤란로 152,1544-3113,37.500,127.037
398,논현로28길,서울특별시 강남구 논현로 30길,1544-3113,37.484,127.044
399,영동대로106길,서울특별시 강남구 영동대로106길33,1544-3113,37.514,127.064
400,영동대로96길,서울특별시 강남구 테헤란로103길10,1544-3113,37.510,127.064
401,남부순환로397길,서울특별시 강남구 남부순환로2921,1544-3113,37.493,127.060
402,대치동507-3,서울특별시 강남구 삼성로 151,1544-3113,37.493,127.063
403,헌릉로745길,서울특별시 강남구 헌릉로745길 37,1544-3113,37.470,127.119
404,은마아파트,서울특별시 강남구 삼성로 212,1544-3113,37.500,127.066
405,압구정로29길,서울특별시 강남구 압구정로29길 51,1544-3113,37.531,127.027
406,대치유수지체육공원,서울특별시 강남구 역삼로107길20-30,1544-3113,37.504,127.068
407,일원동맛의거리,서울특별시 강남구 일원로 9길,1544-3113,37.490,127.085
408,도산대로25길32,서울특별시 강남구 도곡로 421,1544-3113,37.498,127.056
409,도곡로327,서울특별시 강남구 도곡로 327,1544-3113,37.496,127.052
410,도곡로21길7,서울특별시 강남구 도곡로 21길7,1544-3113,37.493,127.039
411,도곡로421,서울특별시 강남구 도곡로 421,1544-3113,37.498,127.056
412,강남치매지원센터,서울특별시 강남구 선릉로 108길 27,1544-3113,37.510,127.046
413,역삼1동문화센터,서울특별시 강남구 역삼로 7길 16,1544-3113,37.495,127.033
414,삼성1동문화센터,서울특별시 강남구 봉은사로 616,1544-3113,37.514,127.063
415,압구정428,서울특별시 강남구 압구정로 161,1544-3113,37.527,127.027
416,역삼문화공원,서울특별시 강남구 테헤란로7길 32,1544-3113,37.503,127.030
417,언북초교,서울특별시 강남구 삼성로 135길 42,1544-3113,37.520,127.045
418,논현로32길15,서울특별시 강남구 논현로 32길15,1544-3113,37.484,127.043
419,대치2동문화센터,서울특별시 강남구 영동대로 65길 24,1544-3113,37.502,127.064
420,논현초교,서울특별시 강남구 강남대로 120길33,1544-3113,37.508,127.026
421,도곡초교,서울특별시 강남구 선릉로 64길 33,1544-3113,37.500,127.054
422,신구초교,서울특별시 강남구 압구정로 18길 28,1544-3113,37.523,127.024
423,구룡산제1호,서울특별시 강남구 양재대로 478 외,1544-3113,37.476,127.067
424,구룡산제2호,서울특별시 강남구 양재대로 478,1544-3113,37.476,127.067
425,포이초교,서울특별시 강남구 개포로22길 87,1544-3113,37.475,127.051
426,논현로22길,서울특별시 강남구 논현로 22길,1544-3113,37.481,127.047
427,개포동공원,서울특별시 강남구 개포로 509,1544-3113,37.490,127.068
428,언주초교,서울특별시 강남구 남부순환로363길19,1544-3113,37.486,127.037
429,개포로24길33,서울특별시 강남구 개포로24길 33,1544-3113,37.477,127.050
430,탄천제2호,서울특별시 강남구 양재대로 55길28,1544-3113,37.493,127.088
431,탄천주차장,서울특별시 강남구 봉은사로114길13,1544-3113,37.514,127.066
432,대청역,서울특별시 강남구 개포로623-1,1544-3113,37.495,127.079
433,일원1동,서울특별시 강남구 양재대로 27길 5,1544-3113,37.490,127.082
434,영희초교,서울특별시 강남구 일원로21,1544-3113,37.492,127.081
435,대왕초교,서울특별시 강남구 헌릉로 618길 8,1544-3113,37.465,127.106
436,구청 부설,서울특별시 강남구 학동로426,1544-3113,37.518,127.047
437,삼성로별관 부설,서울특별시 강남구 삼성로628,1544-3113,37.516,127.052
438,강남대로150길,서울특별시 강남구 도산대로 108,1544-3113,37.516,127.021
439,논현로131길,서울특별시 강남구 학동로171,1544-3113,37.514,127.030
440,테헤란로69길,서울특별시 강남구 테헤란로 69길,1544-3113,37.506,127.053
441,밤고개로21길,서울특별시 강남구 개포로623-1,1544-3113,37.495,127.079
442,여울,서울특별시 양천구 가로공원로 72,02-2620-3736,37.535,126.825
443,문화회관 지하,서울특별시 양천구 목동서로367,02-2620-3736,37.517,126.863
444,다락골,서울특별시 양천구 중앙로29길 41,02-2620-3736,37.516,126.850
445,구름다리,서울특별시 양천구 지양로14길 15,02-2620-3736,37.524,126.833
446,한울,서울특별시 양천구 지양로7길 29,02-2620-3736,37.520,126.832
447,마을마당,서울특별시 양천구 곰달래로3길 13,02-2620-3736,37.531,126.833
448,곰달래,서울특별시 양천구 곰달래로10길 4,02-2620-3736,37.530,126.836
449,가로공원,서울특별시 양천구 가로공원로 133,02-2620-3736,37.537,126.827
450,목동타운홀,서울특별시 양천구 목동동로 345,02-2620-3736,37.533,126.877
451,한두,서울특별시 양천구 목동중앙북로7가길,02-2620-3736,37.549,126.866
452,목3동 해운,서울특별시 양천구 목동중앙남로14가길 39,02-2620-3736,37.542,126.865
453,양천사회단체봉사센터,서울특별시 양천구 목동서로 131,02-2620-3736,37.532,126.875
454,목동,서울특별시 양천구 목동동로 298,02-2620-3736,37.527,126.877
455,공단본부,서울특별시 양천구 목동서로 190,02-2620-3736,37.530,126.872
456,성수역3번출구 앞,서울특별시 성동구 성수이로 (성수2가 315),02-2204-7970,37.543,127.057
457,KT성수분국 앞,서울특별시 성동구 아차산로9길 48,02-2204-7970,37.545,127.061
458,마장축산물시장 남문,서울특별시 성동구 마장로39가길 32 (마장동),02-2204-7970,37.568,127.041
459,마장축산물시장 북문,서울특별시 성동구  (마장동 804)766,02-2204-7970,37.571,127.040
460,마장현대아파트 앞,서울특별시 성동구 마장로35길 76(마장동),02-2204-7970,37.570,127.043
461,장한평자동차시장 가동,서울특별시 성동구 자동차시장1길 (용답동),02-2204-7970,37.561,127.059
462,한전변전소 뒤,서울특별시 성동구 마장로35길 34(마장동),02-2204-7970,37.568,127.038
463,마장주민센터앞,서울특별시 성동구 마장로42길 6(마장동),02-2204-7970,37.566,127.046
464,거주자우선주차 05-05,서울특별시 성동구 마조로1길 22-1(행당동),02-2204-7970,37.559,127.039
465,마장동대형버스(버스),서울특별시 성동구 마장로33길 79 (마장동),02-2204-7970,37.566,127.045
466,(지정)강변,서울특별시 성동구 둘레길 47-5(성수동1가),02-2204-7970,37.537,127.049
467,금호초등학교(건물),서울특별시 성동구 무수막길 69(금호동2가),02-2204-7970,37.552,127.019
468,성수2가1동(건물),서울특별시 성동구 성덕정길 115(성수동2가),02-2204-7970,37.537,127.056
469,송정동 (건물),서울특별시 성동구 동일로 199(송정동),02-2204-7970,37.550,127.068
470,하왕십리(건물),서울특별시 성동구 무학봉길 48(행당동 347-3)1,02-2204-7970,37.561,127.028
471,성수2가3동(건물),서울특별시 성동구 광나루로4가길 23(성수동2가),02-2204-7970,37.549,127.055
472,응봉동(건물),서울특별시 성동구 독서당로63길 40(행당동),02-2204-7970,37.553,127.031
473,용답동(건물),서울특별시 성동구 용답29길 22(용답동),02-2204-7970,37.564,127.054
474,살곶이 공영주차장,서울특별시 성동구 사근동 104서울특별시 성동구 사근동 104,02-2204-7970,37.554,127.047
475,응봉동(평면),서울특별시 성동구 독서당로63길 40(행당동),02-2204-7970,37.551,127.035
476,도선동,서울특별시 성동구 무학로8길 8(홍익동),02-2204-7970,37.566,127.032
477,홍익동(건물),서울특별시 성동구 무학로10길 28(홍익동),02-2204-7970,37.566,127.034
478,강변(건물),서울특별시 성동구 둘레길 47-5(성수동1가),02-2204-7970,37.537,127.049
479,마장동(건물),서울특별시 성동구 청계천로10나길 38(마장동),02-2204-7970,37.570,127.035
480,성수1가2동(평면),서울특별시 성동구 상원10길 21(성수동1가),02-2204-7965,37.550,127.050
481,마장동축산물시장(평면),서울특별시 성동구 마장동 525,02-2204-7970,37.572,127.040
482,용답제2공영주차장,서울특별시 성동구 천호대로78길 9(용답동),02-2204-7970,37.563,127.056
483,마장동축산물 서문,서울특별시 성동구 고산자로26길 6(마장동),02-2204-7970,37.571,127.039
484,성수1가1동(건물),서울특별시 성동구 성덕정1길 6(성수동1가),02-2204-7970,37.540,127.046
485,비봉,서울특별시 종로구 구기동139-9,,37.612,126.957
486,명광교회옆,서울특별시 종로구 성균관로 45,,37.587,126.997
487,서인사마당,서울특별시 종로구 인사동11길 19,,37.574,126.984
488,시민열린마당뒤,서울특별시 종로구 종로1길 55,,37.575,126.979
489,세운상가밑,서울특별시 종로구 장사동 116-3,,,
490,삼청공원앞,서울특별시 종로구 삼청동 25-1,,37.588,126.983
491,원서공원앞,서울특별시 종로구 원서동 206,,37.578,126.988
492,종각뒤,서울특별시 종로구 종로16길 24,,37.569,126.989
493,광화문빌딩옆,서울특별시 종로구 당주동 145,,37.571,126.974
494,종로3가역뒤,서울특별시 종로구 봉익동 36,,,
495,태화관앞,서울특별시 종로구 인사동 194-39,,37.572,126.985
496,평창동,서울특별시 종로구 평창동 114-3 인근,,37.611,126.977
497,평창동 460-3,서울특별시 종로구 평창동 460-3,,37.611,126.975
498,서울교통공사 사당 부설 주차장,서울특별시 서초구 효령로 5(방배동),02-6110-5366,37.476,126.986
499,서울교통공사 인재개발원 부설 주차장,서울특별시 성동구 천호대로 78길 15-48(용답동),02-6110-8012,37.562,127.057
500,삼풍상가 공영주차장,서울특별시 중구 을지로20길,,37.552,127.005
501,한국은행뒤 공영주차장,서울특별시 중구 남대문로5길,,37.564,126.992
502,다동쉼터 공영주차장,서울특별시 중구 다동길,,37.565,127.017
503,해운센터앞 공영주차장,서울특별시 중구 소공로,,37.550,127.005
504,뉴국제호텔앞 공영주차장,서울특별시 중구 세종대로22길,,37.552,127.013
505,이화여고앞 공영주차장,서울특별시 중구 통일로4길,,37.565,126.970
506,국제화재빌딩옆 공영주차장,서울특별시 중구 소월로,,37.557,126.996
507,대림상가 공영주차장,서울특별시 중구 을지로19길,,37.554,127.009
508,청소년회관뒤 공영주차장,서울특별시 중구 충무로9길,,37.559,127.013
509,진양상가옆 공영주차장,서울특별시 중구 퇴계로41길,,37.549,127.006
510,한진면세점앞 공영주차장,서울특별시 중구 소월로,,37.562,126.974
511,남대문피혁상가남측 공영주차장,서울특별시 중구 세종대로5길,,37.565,127.021
512,코오롱빌딩옆 공영주차장,서울특별시 중구 세종대로20길,,37.560,127.001
513,그린빌딩옆 공영주차장,서울특별시 중구 소월로,,37.555,126.965
514,한국관광공사옆 공영주차장,서울특별시 중구 남대문로,02-2280-8360,37.568,126.980
515,맑은내길 공영주차장,서울특별시 중구 마장로1길,,37.556,127.016
516,남평화시장앞 공영주차장,서울특별시 중구 마장로1길,,37.559,126.986
517,조선호텔앞 공영주차장,서울특별시 중구 남대문로7길,,35.562,127.015
518,청계8가 공영주차장,서울특별시 중구 청계천로,02-2280-8360,37.560,127.012
519,서소문올리브타워옆 공영주차장,서울특별시 중구 세종대로9길 41,,37.564,127.000
520,훈련원공원옆 공영주차장,서울특별시 중구 을지로39길,,37.552,127.004
521,국립의료원옆 공영주차장,서울특별시 중구 을지로 41,,37.567,127.018
522,진양상가 인공도로 공영주차장,서울특별시 중구 퇴계로41길 신성상가 서측 인공도로,02-2280-8360,37.568,127.006
523,충현 공영주차장,서울특별시 중구 동호로11나길 47,02-2280-8360,37.560,126.966
524,충현어린이공원 공영주차장,서울특별시 중구 동호로11나길 47,02-2280-8360,37.565,127.023
525,초동 공영주차장,서울특별시 중구 마른내로 38,02-2280-8360,37.566,126.976
526,신당사거리 공영주차장,서울특별시 중구 퇴계로 408,02-2280-8360,37.565,126.996
527,성곽 공영주차장,서울특별시 중구 동호로17길 201,02-2280-8360,37.562,126.979
528,약수동 공영주차장,서울특별시 중구 동호로8다길 22,02-2280-8360,37.568,126.980
529,문화 공영주차장,서울특별시 중구 동호로12길 29,02-2280-8360,37.563,126.981
530,필동 공영주차장,서울특별시 중구 필동로 55,02-2280-8360,37.568,126.978
531,다산동 공영주차장,서울특별시 중구 동호로15길 60,02-2280-8360,37.565,126.970
532,청구 공영주차장,서울특별시 중구 다산로 174,02-2280-8360,37.558,126.976
533,버티 공영주차장,서울특별시 중구 동호로17길 270,02-2280-8360,37.568,126.996
534,서소문삼성생명뒤 공영주차장,서울특별시 중구 서소문로12길,02-2280-8360,37.567,126.990
535,신당역 공영주차장,서울특별시 중구 다산로44길 67,02-2280-8360,37.564,126.997
536,장충 공영주차장,서울특별시 중구 퇴계로50길 59,02-2280-8360,37.556,126.975
537,손기정체육공원 공영주차장,서울특별시 중구 손기정로 101,02-2280-8360,37.559,126.972
538,다동공원 공영주차장,서울특별시 중구 을지로1길 48,02-2280-8360,37.568,126.978
539,동산 공영주차장,서울특별시 중구 다산로24가길 23,02-2280-8360,37.557,126.976
540,남산동 공영주차장,서울특별시 중구 퇴계로20길 24,02-2280-8360,37.568,126.981
541,새싹마을 공영주차장,서울특별시 중구 동호로12길 97,02-2280-8360,37.569,127.011
542,묵정공원지하 공영주차장,서울특별시 중구 퇴계로45길 32-12,02-2280-8360,37.564,126.980
543,다산아트 공영주차장,서울특별시 중구 동호로17길 173,02-2280-8360,37.567,127.017
544,황학어린이공원 공영주차장,서울특별시 중구 다산로48길 33,02-2280-8360,37.561,126.973
545,중구구민회관 부설주차장,서울특별시 중구 을지로39길 40,02-2280-8360,37.568,127.005
546,중림종합복지센터 부설주차장,서울특별시 중구 서소문로6길 16,02-2280-8360,37.568,126.994
547,중구종합복지센터,서울특별시 중구 퇴계로 460,02-2280-8360,37.564,126.996
548,중구구민회관 부설주차장,서울특별시 중구 을지로39길 40,02-2265-7765,37.569,127.006
549,영국대사관옆 공영주차장,서울특별시 중구 세종대로19길,02-2280-8360,37.566,126.976
550,삼풍상가 공영주차장,서울특별시 중구 을지로20길,02-2280-8360,37.565,126.996
551,한국은행뒤 공영주차장,서울특별시 중구 남대문로5길,02-2280-8360,37.562,126.979
552,다동쉼터 공영주차장,서울특별시 중구 다동길,02-2280-8360,37.568,126.980
553,해운센터앞 공영주차장,서울특별시 중구 소공로,02-2280-8360,37.563,126.981
554,뉴국제호텔앞 공영주차장,서울특별시 중구 세종대로22길,02-2280-8360,37.568,126.978
555,이화여고앞 공영주차장,서울특별시 중구 통일로4길,02-2280-8360,37.565,126.968
556,국제화재빌딩옆 공영주차장,서울특별시 중구 소월로,02-2280-8360,37.558,126.976
557,대림상가 공영주차장,서울특별시 중구 을지로19길,02-2280-8360,37.568,126.996
558,연세세브란스빌딩뒤 공영주차장,서울특별시 중구 세종대로2길,02-2280-8360,37.558,126.974
559,청소년회관뒤 공영주차장,서울특별시 중구 충무로9길,02-2280-8360,37.567,126.990
560,진양상가옆 공영주차장,서울특별시 중구 퇴계로41길,02-2280-8360,37.563,126.996
561,한진면세점앞 공영주차장,서울특별시 중구 소월로,02-2280-8360,37.556,126.975
562,남대문피혁상가남측 공영주차장,서울특별시 중구 세종대로5길,02-2280-8360,37.559,126.973
563,코오롱빌딩옆 공영주차장,서울특별시 중구 세종대로20길,02-2280-8360,37.568,126.978
564,그린빌딩옆 공영주차장,서울특별시 중구 소월로,02-2280-8360,37.557,126.976
565,한국관광공사옆 공영주차장,서울특별시 중구 남대문로,02-2280-8360,37.568,126.982
566,맑은내길 공영주차장,서울특별시 중구 마장로1길,02-2280-8360,37.569,127.012
567,남평화시장앞 공영주차장,서울특별시 중구 마장로1길,02-2280-8360,37.569,127.011
568,조선호텔앞 공영주차장,서울특별시 중구 남대문로7길,02-2280-8360,37.564,126.980
569,서소문올리브타워옆 공영주차장,서울특별시 중구 세종대로9길 41,02-2280-8360,37.562,126.973
570,훈련원공원옆 공영주차장,서울특별시 중구 을지로39길,02-2280-8360,37.568,127.005
571,국립의료원옆 공영주차장,서울특별시 중구 을지로 41,02-2280-8360,37.567,127.006
572,진양상가 인공도로 공영주차장,서울특별시 중구 퇴계로41길 신성상가 서측 인공도로,02-2280-8360,37.564,126.996
573,충현 공영주차장,서울특별시 중구 동호로11나길 47,02-2280-8360,37.552,127.006
574,충현어린이공원 공영주차장,서울특별시 중구 동호로11나길 47,02-2280-8360,37.552,127.005
575,초동 공영주차장,서울특별시 중구 마른내로 38,02-2261-0162,37.564,126.992
576,신당사거리 공영주차장,서울특별시 중구 퇴계로 408,02-2231-0445,37.565,127.017
577,성곽 공영주차장,서울특별시 중구 동호로17길 201,02-2252-3369,37.551,127.005
578,약수동 공영주차장,서울특별시 중구 동호로8다길 22,02-2280-8360,37.552,127.013
579,문화 공영주차장,서울특별시 중구 동호로12길 29,02-2252-5314,37.557,127.011
580,필동 공영주차장,서울특별시 중구 필동로 55,02-2280-8360,37.557,126.996
581,다산동 공영주차장,서울특별시 중구 동호로15길 60,02-2238-3379,37.554,127.009
582,청구 공영주차장,서울특별시 중구 다산로 174,02-2234-9773,37.559,127.013
583,버티 공영주차장,서울특별시 중구 동호로17길 270,02-2234-9747,37.549,127.006
584,서소문삼성생명뒤 공영주차장,서울특별시 중구 서소문로12길,02-310-9588,37.562,126.974
585,신당역 공영주차장,서울특별시 중구 다산로44길 67,02-2238-7004,37.565,127.021
586,장충 공영주차장,서울특별시 중구 퇴계로50길 59,02-2277-7004,37.560,127.001
587,손기정체육공원 공영주차장,서울특별시 중구 손기정로 101,02-364-7003,37.556,126.965
588,다동공원 제4 공영주차장,서울특별시 중구 을지로1길 48,02-756-7008,37.568,126.980
589,동산 공영주차장,서울특별시 중구 다산로24가길 23,02-2280-8360,37.556,127.016
590,남산동 공영주차장,서울특별시 중구 퇴계로20길 24,02-755-7004,37.559,126.986
591,신당동 공영주차장,서울특별시 중구 청구로8길 40,02-2235-7003,37.562,127.014
592,새싹마을 공영주차장,서울특별시 중구 동호로12길 97,02-2280-8360,37.560,127.012
593,묵정공원지하 공영주차장,서울특별시 중구 퇴계로45길 32-12,02-2280-8370,37.564,127.000
594,다산아트 공영주차장,서울특별시 중구 동호로17길 173,02-2231-4584,37.552,127.004
595,황학어린이공원 공영주차장,서울특별시 중구 다산로48길 33,02-2256-7004,37.568,127.018
596,묵중안,서울특별시 중랑구 봉화산로 31,02-438-7208,37.602,127.078
597,나들목,서울특별시 중랑구 중랑역로 71,02-438-7208,37.600,127.078
598,동부갯,서울특별시 중랑구 용마산로 117길,02-438-7208,37.600,127.099
599,매화,서울특별시 중랑구 봉우재로 49길9,02-438-7208,37.594,127.092
600,주막거리,서울특별시 중랑구 망우로 36길,02-438-7208,37.594,127.079
601,맛솜씨,서울특별시 중랑구 용마산로 115길,02-438-7208,37.598,127.097
602,우림시장,서울특별시 중랑구 망우로62길,02-438-7208,37.597,127.098
603,중화1동,서울특별시 중랑구 동일로136나길14,02-438-7489,37.603,127.082
604,동원시장,서울특별시 중랑구 상봉로11길,02-2209-0220,37.590,127.092
605,상봉2동,서울특별시 중랑구 면목로85길38,070-8832-1299,37.593,127.084
606,면목5동,서울특별시 중랑구 동일로 594,02-432-4174,37.583,127.080
607,중곡초교,서울특별시 중랑구 면목로27길,02-432-9775,37.575,127.083
608,은행나무,서울특별시 중랑구 겸재로54가길4,02-439-2861,37.587,127.092
609,늘봄,서울특별시 중랑구 겸재로64길9,02-437-1987,37.590,127.096
610,면일초교,서울특별시 중랑구 용마산길100길13,02-432-0708,37.592,127.099
611,까치공원,서울특별시 중랑구 사가정로49길56,02-436-6070,37.584,127.087
612,중랑초교,서울특별시 중랑구 동일로10길 26,02-496-7604,37.589,127.076
613,용마폭포,서울특별시 중랑구 용마산로250-12,02-491-4831,37.573,127.089
614,봉수대,서울특별시 중랑구 봉화산로 45길,02-438-8271,37.607,127.093
615,면목2동,서울특별시 중랑구 겸재로23길27,02-438-7208,37.588,127.081
616,금란,서울특별시 중랑구 망우로448,02-496-9781,37.600,127.102
617,가산동,서울특별시 금천구 시흥대로 153길 53,02-2627-1732,37.469,126.904
618,독산1동,서울특별시 금천구 범안로 12가길 65,02-2627-1732,37.468,126.898
619,독산2동,서울특별시 금천구 시흥대로 98길 36,02-2627-1732,37.443,126.906
620,독산3동,서울특별시 금천구 독산로 108길 44,02-2627-1732,37.455,126.909
621,다목적,서울특별시 금천구 시흥대로 150길 56,02-2627-1732,37.461,126.911
622,구룡,서울특별시 금천구 독산로 107길 13,02-2627-1732,37.460,126.909
623,독산4동,서울특별시 금천구 독산로 78다길 9,02-2627-1732,37.482,126.883
624,시흥1동,서울특별시 금천구 시흥대로 51길 93,02-2627-1732,37.482,126.882
625,시흥3동,서울특별시 금천구 시흥대로 34길 20,02-2627-1732,37.464,126.897
626,삼성,서울특별시 금천구 독산로 24마길 30,02-2627-1732,37.464,126.897
627,효봉,서울특별시 금천구 독산로 50마길 6,02-2627-1732,37.459,126.899
628,시흥4동,서울특별시 금천구 독산로 32가길 33,02-2627-1732,37.474,126.904
629,가산디지털 노외,서울특별시 금천구 벚꽃로 309,,37.473,126.902
630,가산디지털환승,서울특별시 금천구 벚꽃로 309,,37.467,126.901
631,대보 노외주차장,서울특별시 금천구 시흥대로 101길 7,02-802-1234,37.471,126.899
632,현대주차장,서울특별시 금천구 시흥대로 288-8,02-803-0994,37.470,126.901
633,남문주차장,서울특별시 금천구 독산로 85길40,,37.468,126.898
634,전주주차장,서울특별시 금천구 범안로 1249,,37.469,126.895
635,새서울 주차장,서울특별시 금천구 금하로 14길6-16,,37.471,126.891
636,교통공원길,서울특별시 송파구 올림픽로 35다길,,37.517,127.104
637,봉상시길,서울특별시 송파구 올림픽로8길,,37.510,127.078
638,위례성길,서울특별시 송파구,,37.516,127.115
639,위례성길(방이습지),서울특별시 송파구,,37.508,127.138
640,로데오길,서울특별시 송파구,,37.490,127.123
641,문정골길,서울특별시 송파구,,37.489,127.124
642,비석거리,서울특별시 송파구,,37.497,127.117
643,석촌역,서울특별시 송파구,,37.506,127.108
644,마천동1,서울특별시 송파구 성내천로43길 6,,37.495,127.155
645,마천동2,서울특별시 송파구 성내천로299-7,,37.494,127.156
646,마천동3,서울특별시 송파구 마천로 301-1,,37.496,127.150
647,천마,서울특별시 송파구 성내천로33가길 20,,37.500,127.155
648,삼전동,서울특별시 송파구 백제고분로32길 25-17,,37.500,127.096
649,송파동,서울특별시 송파구 백제고분로44길13-25,,37.507,127.113
650,방이동,서울특별시 송파구 백제고분로 481,,37.514,127.114
651,풍납1공영,서울특별시 송파구 풍성로25나길 6,,37.536,127.120
652,풍납2공영,서울특별시 송파구 풍성로5길 16,,37.536,127.116
653,거여동공영,서울특별시 송파구 오금로68길 8,,37.492,127.150
654,문정근린공원,서울특별시 송파구 문정로 지하12,,37.486,127.125
655,송파근린공원주차장,서울특별시 송파구 백제고분로42길5,,37.506,127.109
656,방이고분 주차장,서울특별시 송파구 오금로219,,37.507,127.118
657,석촌고분 주차장,서울특별시 송파구 가락로7길 21,,37.501,127.103
658,카페고고스,서울특별시 송파구 석촌호수로197,,37.507,127.098
659,더다이닝호수,서울특별시 송파구 잠실로148,,37.511,127.101
660,송파나루공원 동호주차장,서울특별시 송파구 잠실로180,,37.513,127.107
661,서울놀이마당,서울특별시 송파구 삼학사로 136,,37.509,127.098
662,아시아공원,서울특별시 송파구 올림픽로44,,37.510,127.078
663,풍납유수지,서울특별시 송파구 올림픽로41길 108,,37.525,127.106
664,탄천,서울특별시 송파구 탄천동로 36,,37.513,127.069
665,가락동1(체비지),서울특별시 송파구 중대로9길 13-14,,37.494,127.119
666,가락동2(체비지),서울특별시 송파구 중대로9길 16,,37.495,127.120
667,장지동 문정동(체비지),서울특별시 송파구 송이로31길,,37.491,127.134
668,풍납시장,서울특별시 송파구 바람드리길 50,,37.537,127.121
669,잠실나루역 환승주차장 (노상),서울특별시 송파구 오금로20,,37.521,127.103
670,신천유수지 주차장,서울특별시 송파구 오금로 1,,37.522,127.103
671,복정역 환승,서울특별시 송파구 송파대로 지하 6,,37.470,127.128
672,잠실역환승,서울특별시 송파구 올림픽로 300(신천동),,37.515,127.106
673,동서울호텔길 노상 공영주차장,서울특별시 광진구 구의강변로,02-2049-4540,37.536,127.092
674,송림식당길 노상 공영주차장,서울특별시 광진구 뚝섬로41길,02-2049-4540,37.534,127.075
675,중곡동복개천 노상 공영주차장,서울특별시 광진구 긴고랑로,02-2049-4540,37.560,127.087
676,신성시장길 노상 공영주차장,서울특별시 광진구 영화사로,02-2049-4540,37.555,127.095
677,중곡3동 마을공원 공영주차장,서울특별시 광진구 용마산로33길25,02-2049-4540,37.570,127.085
678,능동 공영주차장,서울특별시 광진구 천호대로112길 56,02-2049-4540,37.554,127.080
679,구의1동 공영주차장,서울특별시 광진구 자양로18길 78,02-2049-4540,37.538,127.088
680,구의3동 공영주차장,서울특별시 광진구 광나루로52길 83,02-2049-4540,37.539,127.091
681,자양유수지,서울특별시 광진구 뚝섬로52길 74,02-2049-4540,37.529,127.078
682,자양4동 공영,서울특별시 광진구 아차산로32길,02-2049-4540,37.540,127.068
683,화양동 공영,서울특별시 광진구 군자로 22,02-2049-4540,37.545,127.071
684,광진광장 공영,서울특별시 광진구 광나루로 389(군자동),02-2049-4540,37.548,127.073
685,구로2동 마을공동,서울특별시 구로구 구로동로28길 81,02-839-4875,37.491,126.888
686,구로3동 마을공동,서울특별시 구로구 도림로6길 30,02-839-4875,37.485,126.888
687,신도림역 환승,서울특별시 구로구 새말로 121-15,02-839-4875,37.508,126.892
688,구로아트밸리 지하,서울특별시 구로구 가마산로25길 21,02-839-4875,37.497,126.890
689,구로리공원 지하,서울특별시 구로구 구로중앙로 13,02-839-4875,37.491,126.892
690,하늘공원 주차장,서울특별시 구로구 벚꽃로 370,02-839-4875,37.487,126.881
691,고척1동 마을공동,서울특별시 구로구 중앙로8길 16,02-839-4875,37.502,126.864
692,개봉1동 노외,서울특별시 구로구 경인로33길 51,02-839-4875,37.506,126.845
693,오류1동 텃골,서울특별시 구로구 경인로15길 22,02-839-4875,37.495,126.839
694,고척근린공원 지하,서울특별시 구로구 고척로45길 39,02-839-4875,37.506,126.844
695,구로4동 주택가 공동,서울특별시 구로구 구로동로 26길 54,02-839-4875,37.490,126.878
